{
  "type" : "FeatureCollection",
  "features" : [{"type":"Feature","id":1,"geometry":{"type":"Point","coordinates":[13.019941699981064,47.802872900220244]},"properties":{"@id":"node/914278475","addr:city":"Salzburg","addr:country":"AT","addr:housenumber":"11","addr:postcode":5020,"addr:street":"Bindergasse","amenity":"kindergarten","name":"Maxglan Kindergarten","operator:type":"public","check_date":null,"opening_hours":null,"max_age":null,"min_age":null,"operator":null,"phone":"+43 662 433 456","website":null,"at_bev:addr_date":null,"email":null,"religion":null,"ObjectId":1,"contact:phone":"+43 662 433 456","description":null,"capacity":null,"denomination":null,"after_school":null,"contact:website":null,"contact:email":null,"fee":null}},{"type":"Feature","id":2,"geometry":{"type":"Point","coordinates":[13.022707699877442,47.822961299746424]},"properties":{"@id":"node/914878702","addr:city":"Salzburg","addr:country":"AT","addr:housenumber":"49","addr:postcode":5020,"addr:street":"Laufenstraße","amenity":"kindergarten","name":"Kindergarten und Hort Liefering 2","operator:type":"public","check_date":"2024-03-18","opening_hours":"Mo-Fr 06:30-20:00","max_age":null,"min_age":null,"operator":null,"phone":null,"website":null,"at_bev:addr_date":null,"email":null,"religion":null,"ObjectId":2,"contact:phone":null,"description":null,"capacity":null,"denomination":null,"after_school":null,"contact:website":null,"contact:email":null,"fee":null}},{"type":"Feature","id":3,"geometry":{"type":"Point","coordinates":[13.001085199784717,47.834576099886633]},"properties":{"@id":"node/1592805362","addr:city":"Salzburg","addr:country":"AT","addr:housenumber":"85","addr:postcode":5020,"addr:street":"Eugen-Müller-Straße","amenity":"kindergarten","name":"Forelle","operator:type":null,"check_date":"2024-07-14","opening_hours":null,"max_age":6,"min_age":3,"operator":"KOKO","phone":"(0662) 42 28 01","website":"https://koko.at/kinderbetreuung/kindergarten-forelle/","at_bev:addr_date":null,"email":null,"religion":null,"ObjectId":3,"contact:phone":null,"description":null,"capacity":null,"denomination":null,"after_school":null,"contact:website":null,"contact:email":null,"fee":null}},{"type":"Feature","id":4,"geometry":{"type":"Point","coordinates":[13.030638000256209,47.810754900028542]},"properties":{"@id":"node/1676652367","addr:city":"Salzburg","addr:country":"AT","addr:housenumber":"4","addr:postcode":5020,"addr:street":"Inge-Morath-Platz","amenity":"kindergarten","name":"Kindergarten Stadtwerk","operator:type":"public","check_date":null,"opening_hours":"Mo-Fr 06:30-18:30","max_age":null,"min_age":null,"operator":null,"phone":"0662433420","website":"http://www.stadt-salzburg.at/","at_bev:addr_date":null,"email":null,"religion":null,"ObjectId":4,"contact:phone":null,"description":null,"capacity":null,"denomination":null,"after_school":null,"contact:website":null,"contact:email":null,"fee":null}},{"type":"Feature","id":6,"geometry":{"type":"Point","coordinates":[13.081706100365968,47.798264599904954]},"properties":{"@id":"node/2402219617","addr:city":"Salzburg","addr:country":"AT","addr:housenumber":"19","addr:postcode":5020,"addr:street":"Dr.-Petter-Straße","amenity":"kindergarten","name":"Kindergarten und Hort Abfalter","operator:type":"public","check_date":null,"opening_hours":null,"max_age":null,"min_age":null,"operator":"Stadt Salzburg","phone":null,"website":null,"at_bev:addr_date":"2024-04-01","email":null,"religion":null,"ObjectId":6,"contact:phone":null,"description":null,"capacity":null,"denomination":null,"after_school":null,"contact:website":null,"contact:email":null,"fee":null}},{"type":"Feature","id":7,"geometry":{"type":"Point","coordinates":[13.081922500026327,47.79768049975042]},"properties":{"@id":"node/2402220648","addr:city":"Salzburg","addr:country":"AT","addr:housenumber":"32","addr:postcode":5020,"addr:street":"Dr.-Petter-Straße","amenity":"kindergarten","name":"English Play Corner","operator:type":null,"check_date":null,"opening_hours":null,"max_age":null,"min_age":null,"operator":null,"phone":"+43 662 649663","website":"https://www.englishplaycorner.at/de/","at_bev:addr_date":null,"email":"office@englishplaycorner.at","religion":null,"ObjectId":7,"contact:phone":null,"description":"Verein zur Förderung der englischen Sprache bei Kindern","capacity":null,"denomination":null,"after_school":null,"contact:website":null,"contact:email":null,"fee":null}},{"type":"Feature","id":8,"geometry":{"type":"Point","coordinates":[13.041188600080458,47.772214299774674]},"properties":{"@id":"node/3897168663","addr:city":"Salzburg","addr:country":"AT","addr:housenumber":"101","addr:postcode":5020,"addr:street":"Berchtesgadner Straße","amenity":"kindergarten","name":"Krabbelgruppe Gneis","operator:type":null,"check_date":"2023-07-02","opening_hours":null,"max_age":null,"min_age":null,"operator":null,"phone":"+43 (0)662 909463","website":null,"at_bev:addr_date":null,"email":"krabbelgruppe-gneis@hotmail.com","religion":null,"ObjectId":8,"contact:phone":null,"description":null,"capacity":null,"denomination":null,"after_school":null,"contact:website":null,"contact:email":null,"fee":null}},{"type":"Feature","id":9,"geometry":{"type":"Point","coordinates":[13.052556900375235,47.78263459973644]},"properties":{"@id":"node/3897168666","addr:city":"Salzburg","addr:country":"AT","addr:housenumber":"10","addr:postcode":5020,"addr:street":"Morzger Straße","amenity":"kindergarten","name":"Kuschelkiste Bliemhof","operator:type":null,"check_date":"2023-08-22","opening_hours":null,"max_age":null,"min_age":null,"operator":null,"phone":"+43 (0)676 4318430","website":"https://www.kuschelkiste.at/","at_bev:addr_date":null,"email":null,"religion":null,"ObjectId":9,"contact:phone":null,"description":null,"capacity":null,"denomination":null,"after_school":null,"contact:website":null,"contact:email":null,"fee":null}},{"type":"Feature","id":10,"geometry":{"type":"Point","coordinates":[13.040006899561851,47.774687599988198]},"properties":{"@id":"node/3897168667","addr:city":"Salzburg","addr:country":"AT","addr:housenumber":"10","addr:postcode":5020,"addr:street":"Höglwörthweg","amenity":"kindergarten","name":"Kuschelkiste","operator:type":null,"check_date":null,"opening_hours":null,"max_age":null,"min_age":null,"operator":null,"phone":"+43 (0)662 820593","website":"https://www.kuschelkiste.at/","at_bev:addr_date":null,"email":null,"religion":null,"ObjectId":10,"contact:phone":null,"description":null,"capacity":null,"denomination":null,"after_school":null,"contact:website":null,"contact:email":null,"fee":null}},{"type":"Feature","id":11,"geometry":{"type":"Point","coordinates":[13.044876999992034,47.779067199820403]},"properties":{"@id":"node/3897168809","addr:city":"Salzburg","addr:country":"AT","addr:housenumber":"10","addr:postcode":5020,"addr:street":"Dr.-Adolf-Altmann-Straße","amenity":"kindergarten","name":"Sonnenschein","operator:type":null,"check_date":"2023-08-20","opening_hours":null,"max_age":null,"min_age":null,"operator":null,"phone":"+43 (0)662 833189 36","website":null,"at_bev:addr_date":null,"email":"gruppe_sonnenschein@tele2.at","religion":null,"ObjectId":11,"contact:phone":null,"description":null,"capacity":null,"denomination":null,"after_school":null,"contact:website":null,"contact:email":null,"fee":null}},{"type":"Feature","id":12,"geometry":{"type":"Point","coordinates":[13.005336500223002,47.811543599922267]},"properties":{"@id":"node/5317110042","addr:city":"Salzburg","addr:country":"AT","addr:housenumber":"93","addr:postcode":5020,"addr:street":"Kleßheimer Allee","amenity":"kindergarten","name":"Pfarrkindergarten Taxham","operator:type":null,"check_date":null,"opening_hours":null,"max_age":null,"min_age":null,"operator":"Katholische Pfarre Salzburg-Taxham","phone":"+43 662 437744 - 26","website":"https://www.pfarre-taxham.at/kindergarten/","at_bev:addr_date":null,"email":"kindergarten.taxham@pfarre.kirchen.net","religion":"christian","ObjectId":12,"contact:phone":null,"description":null,"capacity":25,"denomination":"catholic","after_school":null,"contact:website":null,"contact:email":null,"fee":"yes"}},{"type":"Feature","id":13,"geometry":{"type":"Point","coordinates":[13.003279599869188,47.812647499761709]},"properties":{"@id":"node/5372952981","addr:city":"Salzburg","addr:country":"AT","addr:housenumber":"1","addr:postcode":5020,"addr:street":"Martin-Luther-Platz","amenity":"kindergarten","name":"Evangelischer Kindergarten Matthäuskirche Salzburg","operator:type":null,"check_date":null,"opening_hours":"Mo-Th 07:00-16:30; Fr 07:00-15:00","max_age":null,"min_age":null,"operator":"Evangelische Pfarrgemeinde A. und H.B. Salzburg Matthäuskirche","phone":"+43 662 442561","website":"https://www.matthaeuskirche.at/kiga/","at_bev:addr_date":null,"email":"kindergarten@matthaeuskirche.at","religion":"christian","ObjectId":13,"contact:phone":null,"description":null,"capacity":null,"denomination":"lutheran;reformed","after_school":null,"contact:website":null,"contact:email":null,"fee":null}},{"type":"Feature","id":14,"geometry":{"type":"Point","coordinates":[13.023133699849792,47.805116999718699]},"properties":{"@id":"node/5557618158","addr:city":"Salzburg","addr:country":"AT","addr:housenumber":"7","addr:postcode":5020,"addr:street":"Böhm-Ermolli-Straße","amenity":"kindergarten","name":"Kindergarten und Hort Aiglhof","operator:type":"public","check_date":null,"opening_hours":"Mo-Fr 06:30-18:30","max_age":null,"min_age":null,"operator":null,"phone":null,"website":null,"at_bev:addr_date":null,"email":null,"religion":null,"ObjectId":14,"contact:phone":null,"description":null,"capacity":null,"denomination":null,"after_school":"yes","contact:website":null,"contact:email":null,"fee":null}},{"type":"Feature","id":15,"geometry":{"type":"Point","coordinates":[13.030546499657991,47.796272599797142]},"properties":{"@id":"node/5963960531","addr:city":"Salzburg","addr:country":"AT","addr:housenumber":"3","addr:postcode":5020,"addr:street":"Moosstraße","amenity":"kindergarten","name":"Riedenburg Kindergarten","operator:type":"public","check_date":null,"opening_hours":null,"max_age":null,"min_age":null,"operator":null,"phone":null,"website":null,"at_bev:addr_date":null,"email":null,"religion":null,"ObjectId":15,"contact:phone":null,"description":null,"capacity":null,"denomination":null,"after_school":null,"contact:website":null,"contact:email":null,"fee":null}},{"type":"Feature","id":16,"geometry":{"type":"Point","coordinates":[13.056412100367096,47.793848000209337]},"properties":{"@id":"node/6312416637","addr:city":"Salzburg","addr:country":"AT","addr:housenumber":"5","addr:postcode":5020,"addr:street":"Ulrike-Gschwandtner-Straße","amenity":"kindergarten","name":"Krabbelgruppe Verein Studierender Eltern","operator:type":null,"check_date":"2024-04-06","opening_hours":null,"max_age":null,"min_age":null,"operator":"Krabbelstube Verein Studierender Eltern","phone":"+43 662 840585","website":null,"at_bev:addr_date":null,"email":"krabbelstubeoffice.arge@gmx.at","religion":null,"ObjectId":16,"contact:phone":null,"description":null,"capacity":null,"denomination":null,"after_school":null,"contact:website":null,"contact:email":null,"fee":null}},{"type":"Feature","id":17,"geometry":{"type":"Point","coordinates":[13.040680999842632,47.823273500173627]},"properties":{"@id":"node/6760246914","addr:city":"Salzburg","addr:country":"AT","addr:housenumber":"1a","addr:postcode":5020,"addr:street":"Jakob-Haringer-Straße","amenity":"kindergarten","name":"Koko Löwenzahn","operator:type":null,"check_date":null,"opening_hours":"Mo-Fr 06:30-18:00","max_age":6,"min_age":1,"operator":"KOKO","phone":null,"website":"https://koko.at/kinderbetreuung/loewenzahn-betriebskinderbetreuung/","at_bev:addr_date":null,"email":"loewenzahn.leitung@koko.at","religion":null,"ObjectId":17,"contact:phone":"+43 662 876764","description":null,"capacity":null,"denomination":null,"after_school":null,"contact:website":"https://koko.at/kinderbetreuung/loewenzahn-betriebskinderbetreuung/","contact:email":"loewenzahn.leitung@koko.at","fee":null}},{"type":"Feature","id":18,"geometry":{"type":"Point","coordinates":[13.047651300321656,47.825405099805479]},"properties":{"@id":"node/9582397917","addr:city":"Salzburg","addr:country":"AT","addr:housenumber":"2","addr:postcode":5020,"addr:street":"Sportplatzstraße","amenity":"kindergarten","name":"Spieloase","operator:type":null,"check_date":null,"opening_hours":null,"max_age":3,"min_age":1,"operator":"KOKO","phone":null,"website":"https://koko.at/","at_bev:addr_date":null,"email":null,"religion":null,"ObjectId":18,"contact:phone":null,"description":null,"capacity":null,"denomination":null,"after_school":null,"contact:website":null,"contact:email":null,"fee":null}},{"type":"Feature","id":19,"geometry":{"type":"Point","coordinates":[13.029988999802761,47.809826599778567]},"properties":{"@id":"node/9582420853","addr:city":"Salzburg","addr:country":"AT","addr:housenumber":"4","addr:postcode":5020,"addr:street":"Roseggerstraße","amenity":"kindergarten","name":"Kosmos","operator:type":null,"check_date":"2024-08-14","opening_hours":null,"max_age":6,"min_age":1,"operator":"KOKO","phone":null,"website":"https://koko.at/","at_bev:addr_date":null,"email":null,"religion":null,"ObjectId":19,"contact:phone":null,"description":null,"capacity":null,"denomination":null,"after_school":null,"contact:website":null,"contact:email":null,"fee":null}},{"type":"Feature","id":20,"geometry":{"type":"Point","coordinates":[13.066684299708387,47.797767900064855]},"properties":{"@id":"node/9582420854","addr:city":"Salzburg","addr:country":"AT","addr:housenumber":"14","addr:postcode":5020,"addr:street":"Aigner Straße","amenity":"kindergarten","name":"Aigen","operator:type":null,"check_date":"2024-03-17","opening_hours":null,"max_age":3,"min_age":1,"operator":"KOKO","phone":null,"website":"https://koko.at/","at_bev:addr_date":null,"email":null,"religion":null,"ObjectId":20,"contact:phone":null,"description":null,"capacity":null,"denomination":null,"after_school":null,"contact:website":null,"contact:email":null,"fee":null}},{"type":"Feature","id":21,"geometry":{"type":"Point","coordinates":[13.018856500083556,47.804304299854657]},"properties":{"@id":"node/9582420855","addr:city":"Salzburg","addr:country":"AT","addr:housenumber":"37","addr:postcode":5020,"addr:street":"Innsbrucker Bundesstraße","amenity":"kindergarten","name":"Grisu-Feuerwache","operator:type":null,"check_date":null,"opening_hours":null,"max_age":3,"min_age":1,"operator":"KOKO","phone":null,"website":"https://koko.at/","at_bev:addr_date":null,"email":null,"religion":null,"ObjectId":21,"contact:phone":null,"description":null,"capacity":null,"denomination":null,"after_school":null,"contact:website":null,"contact:email":null,"fee":null}},{"type":"Feature","id":22,"geometry":{"type":"Point","coordinates":[13.047852499589094,47.811882799989235]},"properties":{"@id":"node/9583081664","addr:city":"Salzburg","addr:country":"AT","addr:housenumber":"2","addr:postcode":5020,"addr:street":"Weiserhofstraße","amenity":"kindergarten","name":"Schallmoos Kindergarten und Hort","operator:type":"public","check_date":null,"opening_hours":null,"max_age":null,"min_age":null,"operator":null,"phone":null,"website":null,"at_bev:addr_date":null,"email":null,"religion":null,"ObjectId":22,"contact:phone":null,"description":null,"capacity":null,"denomination":null,"after_school":null,"contact:website":null,"contact:email":null,"fee":null}},{"type":"Feature","id":23,"geometry":{"type":"Point","coordinates":[13.043995500271715,47.825499599849103]},"properties":{"@id":"node/9583210766","addr:city":"Salzburg","addr:country":"AT","addr:housenumber":"14","addr:postcode":5020,"addr:street":"Gorlicegasse","amenity":"kindergarten","name":"Kindergarten Itzling 2","operator:type":"public","check_date":null,"opening_hours":"Mo-Fr 06:30-18:30","max_age":null,"min_age":null,"operator":null,"phone":"0662451107","website":"https://www.stadt-salzburg.at/orte/kindergaerten-horte-kleinkindgruppen/itzling-2-gorlicegasse-kindergarten/","at_bev:addr_date":null,"email":null,"religion":null,"ObjectId":23,"contact:phone":null,"description":null,"capacity":null,"denomination":null,"after_school":null,"contact:website":null,"contact:email":null,"fee":null}},{"type":"Feature","id":24,"geometry":{"type":"Point","coordinates":[13.054238899625027,47.781598900126347]},"properties":{"@id":"node/9583223221","addr:city":"Salzburg","addr:country":"AT","addr:housenumber":"19","addr:postcode":5020,"addr:street":"Morzger Str.","amenity":"kindergarten","name":"Kleingmain Kindergarten","operator:type":"public","check_date":null,"opening_hours":null,"max_age":null,"min_age":null,"operator":null,"phone":"0662822033","website":"https://www.stadt-salzburg.at/orte/kindergaerten-horte-kleinkindgruppen/kleingmain-kindergarten/","at_bev:addr_date":null,"email":null,"religion":null,"ObjectId":24,"contact:phone":null,"description":null,"capacity":null,"denomination":null,"after_school":null,"contact:website":null,"contact:email":null,"fee":null}},{"type":"Feature","id":25,"geometry":{"type":"Point","coordinates":[13.072086299804813,47.813686799831842]},"properties":{"@id":"node/9583244532","addr:city":"Salzburg","addr:country":"AT","addr:housenumber":"33","addr:postcode":5023,"addr:street":"Minnesheimstraße","amenity":"kindergarten","name":"Bildungscampus Kindergarten Gnigl","operator:type":"public","check_date":null,"opening_hours":"Mo-Fr 07:38-16:40","max_age":null,"min_age":null,"operator":null,"phone":"0662640689","website":"http://www.stadt-salzburg.at/","at_bev:addr_date":null,"email":null,"religion":null,"ObjectId":25,"contact:phone":null,"description":null,"capacity":null,"denomination":null,"after_school":null,"contact:website":null,"contact:email":null,"fee":null}},{"type":"Feature","id":26,"geometry":{"type":"Point","coordinates":[13.041949599788557,47.80065829979786]},"properties":{"@id":"node/9583244533","addr:city":"Salzburg","addr:country":"AT","addr:housenumber":"19","addr:postcode":5020,"addr:street":"Griesgasse","amenity":"kindergarten","name":"Kindergarten Griesgasse","operator:type":"public","check_date":"2023-08-10","opening_hours":null,"max_age":null,"min_age":null,"operator":null,"phone":"0662849988","website":"http://www.stadt-salzburg.at/","at_bev:addr_date":null,"email":null,"religion":null,"ObjectId":26,"contact:phone":null,"description":null,"capacity":null,"denomination":null,"after_school":null,"contact:website":null,"contact:email":null,"fee":null}},{"type":"Feature","id":27,"geometry":{"type":"Point","coordinates":[13.055933999904886,47.822016800265047]},"properties":{"@id":"node/9583246035","addr:city":"Salzburg","addr:country":"AT","addr:housenumber":"6","addr:postcode":5020,"addr:street":"Meierhofweg","amenity":"kindergarten","name":"Kindergarten und Hort Baron Schwarz Park","operator:type":"public","check_date":"2024-05-01","opening_hours":null,"max_age":null,"min_age":null,"operator":null,"phone":"0662879692","website":"http://www.stadt-salzburg.at/","at_bev:addr_date":null,"email":null,"religion":null,"ObjectId":27,"contact:phone":null,"description":null,"capacity":null,"denomination":null,"after_school":null,"contact:website":null,"contact:email":null,"fee":null}},{"type":"Feature","id":28,"geometry":{"type":"Point","coordinates":[13.010956000416032,47.813522899834844]},"properties":{"@id":"node/9583246036","addr:city":"Salzburg","addr:country":"AT","addr:housenumber":"35F","addr:postcode":5020,"addr:street":"Peter-Pfenninger-Straße","amenity":"kindergarten","name":"Kindergarten und Hort Bolaring","operator:type":"public","check_date":null,"opening_hours":null,"max_age":null,"min_age":null,"operator":null,"phone":"0662444802","website":"http://www.stadt-salzburg.at/","at_bev:addr_date":null,"email":null,"religion":null,"ObjectId":28,"contact:phone":null,"description":null,"capacity":null,"denomination":null,"after_school":null,"contact:website":null,"contact:email":null,"fee":null}},{"type":"Feature","id":29,"geometry":{"type":"Point","coordinates":[13.078722100011374,47.780431499913163]},"properties":{"@id":"node/9583282118","addr:city":"Salzburg","addr:country":"AT","addr:housenumber":"102","addr:postcode":5026,"addr:street":"Schwanthalerstraße ","amenity":"kindergarten","name":"Kindergarten Aigen","operator:type":"public","check_date":null,"opening_hours":null,"max_age":null,"min_age":null,"operator":null,"phone":null,"website":null,"at_bev:addr_date":null,"email":null,"religion":null,"ObjectId":29,"contact:phone":null,"description":null,"capacity":null,"denomination":null,"after_school":null,"contact:website":null,"contact:email":null,"fee":null}},{"type":"Feature","id":30,"geometry":{"type":"Point","coordinates":[13.040590800004944,47.817827799812839]},"properties":{"@id":"node/9600732082","addr:city":"Salzburg","addr:country":"AT","addr:housenumber":"42b","addr:postcode":5020,"addr:street":"Plainstraße","amenity":"kindergarten","name":"Kleinkindgruppe St.Elisabeth der St.Erentrudis-Stiftung","operator:type":"religious","check_date":"2024-03-24","opening_hours":"Mo-Fr 07:00-15:00","max_age":null,"min_age":null,"operator":"St. Erentrudis-Stiftung der Erzdiözese Salzburg","phone":"0676848210834","website":"https://erentrudis-stiftung.at/kindergarten/pfarrkindergarten-st-elisabeth/","at_bev:addr_date":null,"email":null,"religion":null,"ObjectId":30,"contact:phone":null,"description":null,"capacity":null,"denomination":null,"after_school":null,"contact:website":null,"contact:email":null,"fee":null}},{"type":"Feature","id":31,"geometry":{"type":"Point","coordinates":[13.068626200434474,47.799024599749018]},"properties":{"@id":"node/11990955155","addr:city":"Salzburg","addr:country":"AT","addr:housenumber":"7","addr:postcode":5020,"addr:street":"Neufanggasse","amenity":"kindergarten","name":"Pfarrkindergarten Parsch","operator:type":null,"check_date":null,"opening_hours":null,"max_age":null,"min_age":null,"operator":"Katholische Kirche Erzdiözese Salzburg","phone":"+43 517 607021","website":"https://erentrudis-stiftung.at/kindergarten/pfarrkindergarten-parsch/","at_bev:addr_date":"2024-04-01","email":"info@erentrudis-stiftung.at","religion":null,"ObjectId":31,"contact:phone":"+43 517 607021","description":null,"capacity":null,"denomination":null,"after_school":null,"contact:website":"https://erentrudis-stiftung.at/kindergarten/pfarrkindergarten-parsch/","contact:email":"info@erentrudis-stiftung.at","fee":"yes"}},{"type":"Feature","id":32,"geometry":{"type":"Point","coordinates":[13.073947099728747,47.792620099997173]},"properties":{"@id":"node/12799631972","addr:city":"Salzburg","addr:country":"AT","addr:housenumber":"4","addr:postcode":5026,"addr:street":"Ernst-Grein-Straße","amenity":"kindergarten","name":"Heilpädagogischer Kindergarten","operator:type":null,"check_date":null,"opening_hours":null,"max_age":null,"min_age":null,"operator":"Lebenshilfe Salzburg","phone":null,"website":"https://www.lebenshilfe-salzburg.at/","at_bev:addr_date":null,"email":null,"religion":null,"ObjectId":32,"contact:phone":null,"description":null,"capacity":null,"denomination":null,"after_school":null,"contact:website":null,"contact:email":null,"fee":null}}]
}